start=new Date('2022-07-17T00:00:00.000Z').valueOf();
sats=[{"EPHEMERIS_TYPE":"0","BSTAR":"-0.00210600000000","APOAPSIS":"540.527","OBJECT_TYPE":"PAYLOAD","INCLINATION":"53.2177","CENTER_NAME":"EARTH","SITE":"AFETR","REF_FRAME":"TEME","MEAN_MOTION_DOT":"-0.00033685","MEAN_ANOMALY":"279.8965","REV_AT_EPOCH":"1959","RCS_SIZE":"LARGE","GP_ID":"208245818","EPOCH":"2022-07-16T22:00:00.999936","SEMIMAJOR_AXIS":"6917.758","CLASSIFICATION_TYPE":"U","MEAN_MOTION":"15.08880075","PERIOD":"95.435","OBJECT_ID":"2022-029G","PERIAPSIS":"538.719","OBJECT_NAME":"STARLINK-3714","NORAD_CAT_ID":"52094","DECAY_DATE":null,"TLE_LINE1":"1 52094U 22029G   22197.91667824 -.00033685  00000-0 -21060-2 0  9997","MEAN_MOTION_DDOT":"0.0000000000000","FILE":"3515462","ELEMENT_SET_NO":"999","TIME_SYSTEM":"UTC","LAUNCH_DATE":"2022-03-19","TLE_LINE2":"2 52094  53.2177 307.6762 0001307  60.4222 279.8965 15.08880075 19597","MEAN_ELEMENT_THEORY":"SGP4","RA_OF_ASC_NODE":"307.6762","ECCENTRICITY":"0.00013070","ARG_OF_PERICENTER":"60.4222","COUNTRY_CODE":"US"},{"OBJECT_NAME":"STARLINK-3701","PERIAPSIS":"538.758","PERIOD":"95.436","OBJECT_ID":"2022-029H","CLASSIFICATION_TYPE":"U","MEAN_MOTION":"15.08856933","EPOCH":"2022-07-16T22:00:00.999936","SEMIMAJOR_AXIS":"6917.829","GP_ID":"208245819","MEAN_ANOMALY":"329.3067","MEAN_MOTION_DOT":"-0.00011091","RCS_SIZE":"LARGE","REV_AT_EPOCH":"1960","REF_FRAME":"TEME","SITE":"AFETR","CENTER_NAME":"EARTH","INCLINATION":"53.2186","OBJECT_TYPE":"PAYLOAD","BSTAR":"-0.00067949000000","EPHEMERIS_TYPE":"0","APOAPSIS":"540.630","COUNTRY_CODE":"US","RA_OF_ASC_NODE":"307.6797","ECCENTRICITY":"0.00013530","ARG_OF_PERICENTER":"71.0552","TLE_LINE2":"2 52095  53.2186 307.6797 0001353  71.0552 329.3067 15.08856933 19603","MEAN_ELEMENT_THEORY":"SGP4","TIME_SYSTEM":"UTC","LAUNCH_DATE":"2022-03-19","ELEMENT_SET_NO":"999","MEAN_MOTION_DDOT":"0.0000000000000","FILE":"3515462","DECAY_DATE":null,"TLE_LINE1":"1 52095U 22029H   22197.91667824 -.00011091  00000-0 -67949-3 0  9992","NORAD_CAT_ID":"52095"},{"MEAN_ANOMALY":"111.3396","MEAN_MOTION_DOT":"-0.00056842","RCS_SIZE":"LARGE","REV_AT_EPOCH":"130","GP_ID":"208273937","EPOCH":"2022-07-16T22:00:00.999936","SEMIMAJOR_AXIS":"6917.789","CLASSIFICATION_TYPE":"U","MEAN_MOTION":"15.08869883","PERIOD":"95.436","OBJECT_ID":"2022-029J","PERIAPSIS":"538.450","OBJECT_NAME":"STARLINK-3717","BSTAR":"-0.00357880000000","EPHEMERIS_TYPE":"0","APOAPSIS":"540.858","OBJECT_TYPE":"PAYLOAD","INCLINATION":"53.2142","CENTER_NAME":"EARTH","SITE":"AFETR","REF_FRAME":"TEME","TIME_SYSTEM":"UTC","LAUNCH_DATE":"2022-03-19","TLE_LINE2":"2 52096  53.2142 297.6821 0001740  44.0395 111.3396 15.08869883  1307","MEAN_ELEMENT_THEORY":"SGP4","RA_OF_ASC_NODE":"297.6821","ECCENTRICITY":"0.00017400","ARG_OF_PERICENTER":"44.0395","COUNTRY_CODE":"US","NORAD_CAT_ID":"52096","DECAY_DATE":null,"TLE_LINE1":"1 52096U 22029J   22197.91667824 -.00056842  00000-0 -35788-2 0  9991","MEAN_MOTION_DDOT":"0.0000000000000","FILE":"3515618","ELEMENT_SET_NO":"999"},{"NORAD_CAT_ID":"52098","DECAY_DATE":null,"TLE_LINE1":"1 52098U 22029L   22197.91667824 -.00043066  00000-0 -27016-2 0  9992","MEAN_MOTION_DDOT":"0.0000000000000","FILE":"3515618","ELEMENT_SET_NO":"999","TIME_SYSTEM":"UTC","LAUNCH_DATE":"2022-03-19","TLE_LINE2":"2 52098  53.2192 307.6819 0001368  69.8862 310.4770 15.08873266  1301","MEAN_ELEMENT_THEORY":"SGP4","RA_OF_ASC_NODE":"307.6819","ECCENTRICITY":"0.00013680","ARG_OF_PERICENTER":"69.8862","COUNTRY_CODE":"US","BSTAR":"-0.00270160000000","EPHEMERIS_TYPE":"0","APOAPSIS":"540.590","OBJECT_TYPE":"PAYLOAD","SITE":"AFETR","INCLINATION":"53.2192","CENTER_NAME":"EARTH","REF_FRAME":"TEME","MEAN_MOTION_DOT":"-0.00043066","MEAN_ANOMALY":"310.4770","REV_AT_EPOCH":"130","RCS_SIZE":"LARGE","EPOCH":"2022-07-16T22:00:00.999936","SEMIMAJOR_AXIS":"6917.779","GP_ID":"208274154","PERIOD":"95.435","OBJECT_ID":"2022-029L","CLASSIFICATION_TYPE":"U","MEAN_MOTION":"15.08873266","OBJECT_NAME":"STARLINK-3665","PERIAPSIS":"538.697"},{"MEAN_ELEMENT_THEORY":"SGP4","TLE_LINE2":"2 52100  53.2175 307.6753 0001217  86.8382 333.5534 15.08857831 19608","LAUNCH_DATE":"2022-03-19","TIME_SYSTEM":"UTC","COUNTRY_CODE":"US","ARG_OF_PERICENTER":"86.8382","RA_OF_ASC_NODE":"307.6753","ECCENTRICITY":"0.00012170","TLE_LINE1":"1 52100U 22029N   22197.91667824 -.00041512  00000-0 -26040-2 0  9996","DECAY_DATE":null,"NORAD_CAT_ID":"52100","ELEMENT_SET_NO":"999","FILE":"3515588","MEAN_MOTION_DDOT":"0.0000000000000","SEMIMAJOR_AXIS":"6917.826","EPOCH":"2022-07-16T22:00:00.999936","GP_ID":"208248597","RCS_SIZE":"LARGE","REV_AT_EPOCH":"1960","MEAN_MOTION_DOT":"-0.00041512","MEAN_ANOMALY":"333.5534","OBJECT_NAME":"STARLINK-3702","PERIAPSIS":"538.849","PERIOD":"95.436","OBJECT_ID":"2022-029N","MEAN_MOTION":"15.08857831","CLASSIFICATION_TYPE":"U","OBJECT_TYPE":"PAYLOAD","APOAPSIS":"540.533","BSTAR":"-0.00260400000000","EPHEMERIS_TYPE":"0","REF_FRAME":"TEME","SITE":"AFETR","INCLINATION":"53.2175","CENTER_NAME":"EARTH"},{"REF_FRAME":"TEME","INCLINATION":"53.2178","CENTER_NAME":"EARTH","SITE":"AFETR","OBJECT_TYPE":"PAYLOAD","BSTAR":"-0.00061581000000","EPHEMERIS_TYPE":"0","APOAPSIS":"540.530","PERIAPSIS":"538.881","OBJECT_NAME":"STARLINK-3703","CLASSIFICATION_TYPE":"U","MEAN_MOTION":"15.08853103","OBJECT_ID":"2022-029P","PERIOD":"95.437","GP_ID":"208245845","EPOCH":"2022-07-16T22:00:00.999936","SEMIMAJOR_AXIS":"6917.840","MEAN_MOTION_DOT":"-0.00010078","MEAN_ANOMALY":"35.5492","RCS_SIZE":"LARGE","REV_AT_EPOCH":"1959","ELEMENT_SET_NO":"999","MEAN_MOTION_DDOT":"0.0000000000000","FILE":"3515463","DECAY_DATE":null,"TLE_LINE1":"1 52101U 22029P   22197.91667824 -.00010078  00000-0 -61581-3 0  9990","NORAD_CAT_ID":"52101","COUNTRY_CODE":"US","ECCENTRICITY":"0.00011920","RA_OF_ASC_NODE":"307.6765","ARG_OF_PERICENTER":"64.8144","TLE_LINE2":"2 52101  53.2178 307.6765 0001192  64.8144  35.5492 15.08853103 19597","MEAN_ELEMENT_THEORY":"SGP4","TIME_SYSTEM":"UTC","LAUNCH_DATE":"2022-03-19"},{"TLE_LINE1":"1 52102U 22029Q   22197.91667824 -.00024107  00000-0 -15009-2 0  9992","DECAY_DATE":null,"NORAD_CAT_ID":"52102","ELEMENT_SET_NO":"999","FILE":"3515464","MEAN_MOTION_DDOT":"0.0000000000000","MEAN_ELEMENT_THEORY":"SGP4","TLE_LINE2":"2 52102  53.2160 297.6654 0001921  45.5818   4.5855 15.08857357 19738","LAUNCH_DATE":"2022-03-19","TIME_SYSTEM":"UTC","COUNTRY_CODE":"US","ARG_OF_PERICENTER":"45.5818","RA_OF_ASC_NODE":"297.6654","ECCENTRICITY":"0.00019210","OBJECT_TYPE":"PAYLOAD","APOAPSIS":"541.021","EPHEMERIS_TYPE":"0","BSTAR":"-0.00150090000000","REF_FRAME":"TEME","CENTER_NAME":"EARTH","INCLINATION":"53.2160","SITE":"AFETR","GP_ID":"208245448","SEMIMAJOR_AXIS":"6917.827","EPOCH":"2022-07-16T22:00:00.999936","REV_AT_EPOCH":"1973","RCS_SIZE":"LARGE","MEAN_MOTION_DOT":"-0.00024107","MEAN_ANOMALY":"4.5855","PERIAPSIS":"538.363","OBJECT_NAME":"STARLINK-3709","MEAN_MOTION":"15.08857357","CLASSIFICATION_TYPE":"U","OBJECT_ID":"2022-029Q","PERIOD":"95.436"},{"REF_FRAME":"TEME","INCLINATION":"53.2150","CENTER_NAME":"EARTH","SITE":"AFETR","OBJECT_TYPE":"PAYLOAD","APOAPSIS":"540.774","EPHEMERIS_TYPE":"0","BSTAR":"-0.00367930000000","PERIAPSIS":"538.484","OBJECT_NAME":"STARLINK-3705","MEAN_MOTION":"15.08878077","CLASSIFICATION_TYPE":"U","PERIOD":"95.435","OBJECT_ID":"2022-029R","GP_ID":"208245871","SEMIMAJOR_AXIS":"6917.764","EPOCH":"2022-07-16T22:00:00.999936","RCS_SIZE":"LARGE","REV_AT_EPOCH":"1972","MEAN_ANOMALY":"148.6922","MEAN_MOTION_DOT":"-0.00058430","ELEMENT_SET_NO":"999","FILE":"3515465","MEAN_MOTION_DDOT":"0.0000000000000","TLE_LINE1":"1 52103U 22029R   22197.91667824 -.00058430  00000-0 -36793-2 0  9992","DECAY_DATE":null,"NORAD_CAT_ID":"52103","COUNTRY_CODE":"US","ARG_OF_PERICENTER":"46.6376","ECCENTRICITY":"0.00016550","RA_OF_ASC_NODE":"297.6842","MEAN_ELEMENT_THEORY":"SGP4","TLE_LINE2":"2 52103  53.2150 297.6842 0001655  46.6376 148.6922 15.08878077 19728","LAUNCH_DATE":"2022-03-19","TIME_SYSTEM":"UTC"},{"APOAPSIS":"540.743","EPHEMERIS_TYPE":"0","BSTAR":"-0.00102260000000","OBJECT_TYPE":"PAYLOAD","CENTER_NAME":"EARTH","INCLINATION":"53.2135","SITE":"AFETR","REF_FRAME":"TEME","REV_AT_EPOCH":"130","RCS_SIZE":"LARGE","MEAN_ANOMALY":"177.5035","MEAN_MOTION_DOT":"-0.00016540","GP_ID":"208273445","SEMIMAJOR_AXIS":"6917.781","EPOCH":"2022-07-16T22:00:00.999936","MEAN_MOTION":"15.08872473","CLASSIFICATION_TYPE":"U","PERIOD":"95.436","OBJECT_ID":"2022-029T","PERIAPSIS":"538.550","OBJECT_NAME":"STARLINK-3706","NORAD_CAT_ID":"52105","TLE_LINE1":"1 52105U 22029T   22197.91667824 -.00016540  00000-0 -10226-2 0  9993","DECAY_DATE":null,"FILE":"3515618","MEAN_MOTION_DDOT":"0.0000000000000","ELEMENT_SET_NO":"999","LAUNCH_DATE":"2022-03-19","TIME_SYSTEM":"UTC","MEAN_ELEMENT_THEORY":"SGP4","TLE_LINE2":"2 52105  53.2135 297.6792 0001585  52.5293 177.5035 15.08872473  1308","ARG_OF_PERICENTER":"52.5293","RA_OF_ASC_NODE":"297.6792","ECCENTRICITY":"0.00015850","COUNTRY_CODE":"US"},{"COUNTRY_CODE":"US","ARG_OF_PERICENTER":"66.3999","ECCENTRICITY":"0.00013710","RA_OF_ASC_NODE":"307.6734","MEAN_ELEMENT_THEORY":"SGP4","TLE_LINE2":"2 52106  53.2171 307.6734 0001371  66.3999  53.9208 15.08878250 19594","LAUNCH_DATE":"2022-03-19","TIME_SYSTEM":"UTC","ELEMENT_SET_NO":"999","FILE":"3515486","MEAN_MOTION_DDOT":"0.0000000000000","TLE_LINE1":"1 52106U 22029U   22197.91667824 -.00049676  00000-0 -31215-2 0  9991","DECAY_DATE":null,"NORAD_CAT_ID":"52106","PERIAPSIS":"538.680","OBJECT_NAME":"STARLINK-3670","MEAN_MOTION":"15.08878250","CLASSIFICATION_TYPE":"U","PERIOD":"95.435","OBJECT_ID":"2022-029U","GP_ID":"208245472","SEMIMAJOR_AXIS":"6917.763","EPOCH":"2022-07-16T22:00:00.999936","REV_AT_EPOCH":"1959","RCS_SIZE":"LARGE","MEAN_MOTION_DOT":"-0.00049676","MEAN_ANOMALY":"53.9208","REF_FRAME":"TEME","CENTER_NAME":"EARTH","INCLINATION":"53.2171","SITE":"AFETR","OBJECT_TYPE":"PAYLOAD","APOAPSIS":"540.577","EPHEMERIS_TYPE":"0","BSTAR":"-0.00312150000000"}];
